SPACEMOBILE-006         
1 67232U 25309A   26128.55048521  .00002348  00000+0  12824-3 0  9994
2 67232  52.9952 153.1461 0011536  16.7160 343.4212 15.18331436 20570
